{"spkid": "50402154", "covariance": {"epoch": "2457493.5", "elements": [{"label": "e", "sigma": 6.3947235936826e-07, "name": "e", "units": null, "title": "eccentricity", "value": ".7741797251604104"}, {"label": "q", "sigma": 8.06449025073673e-07, "name": "q", "value": ".285139971063525", "title": "perihelion distance", "units": "au"}, {"title": "time of perihelion passage", "value": "2457677.999889046173", "units": "TDB", "name": "tp", "sigma": 2.5144419500213e-05, "label": "tp"}, {"label": "node", "title": "longitude of the ascending node", "value": "146.8306564775449", "units": "deg", "name": "om", "sigma": 2.31715065303064e-05}, {"label": "peri", "name": "w", "sigma": 8.51744911119294e-05, "title": "argument of perihelion", "value": "136.5470657972976", "units": "deg"}, {"name": "i", "sigma": 5.63714891265321e-05, "units": "deg", "title": "inclination", "value": "9.160457089405559", "label": "i"}], "data": [["4.089248983960094E-13", "-5.157014184307159E-13", "-9.729250917894449E-12", "-4.315004262650215E-12", "5.253022085743346E-11", "1.486070891766106E-11"], ["-5.157014184307159E-13", "6.503600300422783E-13", "1.228800415696243E-11", "5.439885781272337E-12", "-6.624379040172729E-11", "-1.874834908454983E-11"], ["-9.729250917894449E-12", "1.228800415696243E-11", "6.322418320026903E-10", "2.138793324140583E-11", "-1.129978756768288E-9", "-2.701861502851178E-10"], ["-4.315004262650215E-12", "5.439885781272337E-12", "2.138793324140583E-11", "5.369187148840333E-10", "-1.044520418854322E-9", "3.202478823486321E-10"], ["5.253022085743346E-11", "-6.624379040172729E-11", "-1.129978756768288E-9", "-1.044520418854322E-9", "7.254693936176141E-9", "1.45509633717927E-9"], ["1.486070891766106E-11", "-1.874834908454983E-11", "-2.701861502851178E-10", "3.202478823486321E-10", "1.45509633717927E-9", "3.177744786342728E-9"]], "labels": ["e", "q", "tp", "node", "peri", "i"]}, "elements": [{"label": "e", "title": "eccentricity", "value": ".7743181393557879", "units": null, "sigma": "6.397E-7", "name": "e"}, {"name": "a", "sigma": "6.3046E-9", "units": "au", "title": "semi-major axis", "value": "1.262976068429161", "label": "a"}, {"label": "q", "name": "q", "sigma": "8.0679E-7", "value": ".2850307890722047", "title": "perihelion distance", "units": "au"}, {"value": "9.176529044390739", "title": "inclination; angle with respect to x-y ecliptic plane", "units": "deg", "name": "i", "sigma": "5.6482E-5", "label": "i"}, {"name": "om", "sigma": "2.3144E-5", "units": "deg", "title": "longitude of the ascending node", "value": "146.7017254122489", "label": "node"}, {"title": "argument of perihelion", "value": "136.6879228782089", "units": "deg", "name": "w", "sigma": "8.5317E-5", "label": "peri"}, {"name": "ma", "sigma": "2.6059E-5", "units": "deg", "title": "mean anomaly", "value": "286.6590255172628", "label": "M"}, {"label": "tp", "units": "TDB", "title": "time of perihelion passage", "value": "2461306.117354310461", "sigma": "3.8087E-5", "name": "tp"}, {"label": "period", "units": "d", "title": "sidereal orbital period", "value": "518.4311746596086", "sigma": "3.8819E-6", "name": "per"}, {"label": "n", "value": ".6944026856339585", "title": "mean motion", "units": "deg/d", "sigma": "5.1995E-9", "name": "n"}, {"name": "ad", "sigma": "1.1186E-8", "units": "au", "value": "2.240921347786117", "title": "aphelion distance", "label": "Q"}], "epoch": "2461200.5"}